FALCONSAT-6             
1 43815U 18099BK  26068.72544389  .00005029  00000+0  19477-3 0  9998
2 43815  97.3865 145.8165 0014370 297.0944 181.0714 15.26532865398556
STARLINK-31250          
1 58839U 24017P   26068.64585435  .00000002  00000+0  12177-4 0  9992
2 58839  53.1603 194.2827 0000738  71.9336 288.1745 15.30199938120144
